OBJECT_NAME,OBJECT_ID,EPOCH,MEAN_MOTION,ECCENTRICITY,INCLINATION,RA_OF_ASC_NODE,ARG_OF_PERICENTER,MEAN_ANOMALY,EPHEMERIS_TYPE,CLASSIFICATION_TYPE,NORAD_CAT_ID,ELEMENT_SET_NO,REV_AT_EPOCH,BSTAR,MEAN_MOTION_DOT,MEAN_MOTION_DDOT
STARLINK-31513,2024-073U,2025-10-27T10:31:31.295424,15.27584631,.00016257,43.0041,347.3055,283.0341,77.0329,0,U,59529,999,8583,-.4756795E-5,-.393E-5,0
STARLINK-31392,2024-073V,2025-10-27T10:08:37.865472,15.27582466,.00039234,43.0075,350.6840,280.2572,79.7838,0,U,59530,999,8579,.9201216E-5,-.1E-6,0
STARLINK-31619,2024-073W,2025-10-27T12:56:35.086272,15.27579803,.00011446,43.0031,349.8420,265.7604,94.3117,0,U,59531,999,8693,.41969569E-4,.893E-5,0
STARLINK-31509,2024-073Y,2025-10-27T10:45:37.815840,15.27595648,.00009249,43.0016,350.8882,268.3505,91.7240,0,U,59533,999,8579,-.33085765E-4,-.1173E-4,0
STARLINK-31734,2024-074A,2025-10-27T10:54:01.427616,15.27585724,.0000757,43.0014,5.0735,271.3610,88.7155,0,U,59534,999,8576,.11439896E-3,.2888E-4,0
STARLINK-31738,2024-074B,2025-10-27T11:18:30.600000,15.27579419,.00013001,43.0020,12.0397,261.5509,98.5195,0,U,59535,999,8568,.94106144E-4,.2328E-4,0
STARLINK-31721,2024-074C,2025-10-27T05:04:54.738624,15.27568017,.00013652,43.0031,17.0760,255.9897,104.0803,0,U,59536,999,8560,-.10152977E-3,-.3054E-4,0
STARLINK-31737,2024-074D,2025-10-27T14:50:11.756832,15.27591616,.00023615,43.0022,14.9687,281.9871,78.0716,0,U,59537,999,8566,.11235066E-3,.2831E-4,0
STARLINK-31725,2024-074E,2025-10-27T13:23:37.622976,15.27575234,.00011498,43.0031,4.7131,269.3619,90.7101,0,U,59538,999,8577,.62912004E-4,.1469E-4,0
STARLINK-31539,2024-074F,2025-10-27T11:58:32.032704,15.27589124,.00012557,43.0028,15.7945,270.9284,89.1424,0,U,59539,999,8564,.66464682E-4,.1568E-4,0
STARLINK-31397,2024-074G,2025-10-27T21:43:50.162016,15.27587409,.00008121,43.0028,13.6836,296.3072,63.7696,0,U,59540,999,8570,-.32699323E-4,-.1162E-4,0
STARLINK-31481,2024-074H,2025-10-27T22:00:17.057376,15.27578013,.00005029,43.0000,12.9092,275.6510,84.4285,0,U,59541,999,8571,.773509E-6,-.24E-5,0
STARLINK-31540,2024-074J,2025-10-27T11:27:05.522400,15.27578193,.000164,43.0058,15.6284,267.6336,92.4328,0,U,59542,999,8564,.532143E-4,.1202E-4,0
STARLINK-31574,2024-074K,2025-10-27T15:12:24.870816,15.27574443,.00004925,42.9983,15.0799,275.4796,84.5999,0,U,59543,999,8566,.4450327E-5,-.139E-5,0
STARLINK-31556,2024-074L,2025-10-27T21:32:44.924352,15.27558777,.00005736,43.0011,13.6297,37.1681,322.9210,0,U,59544,999,8570,-.88821981E-4,-.2703E-4,0
STARLINK-31582,2024-074M,2025-10-27T15:32:45.421152,15.27595412,.00014781,43.0052,15.1866,286.8137,73.2552,0,U,59545,999,8566,-.73261348E-4,-.2279E-4,0
STARLINK-31519,2024-074N,2025-10-27T14:18:45.014112,15.27588827,.00005899,43.0012,14.8004,256.0911,103.9875,0,U,59546,999,8566,.32055409E-3,.8572E-4,0
STARLINK-31736,2024-074P,2025-10-27T14:55:18.368832,15.27573237,.00008491,43.0006,8.0658,266.6136,93.4618,0,U,59547,999,8574,-.67982114E-4,-.2132E-4,0
STARLINK-31675,2024-074Q,2025-10-27T11:32:37.823712,15.27590798,.00010167,43.0033,15.6534,241.3649,118.7100,0,U,59548,999,8564,.58390615E-4,.1346E-4,0
STARLINK-31722,2024-074R,2025-10-27T22:03:59.177088,15.27582795,.00004382,42.9999,12.9235,316.6294,43.4523,0,U,59549,999,8571,.1579333E-3,.4087E-4,0
STARLINK-31741,2024-074S,2025-10-27T15:58:26.388480,15.27595693,.00029825,43.0085,14.4644,286.6519,73.4005,0,U,59550,999,8567,.13795823E-3,.3537E-4,0
STARLINK-31699,2024-074T,2025-10-27T11:36:20.531808,15.27581725,.00009153,43.0028,15.6752,246.3893,113.6863,0,U,59551,999,8564,.14621949E-4,.14E-5,0
STARLINK-31750,2024-074U,2025-10-27T15:01:18.329376,15.27584657,.0000707,43.0011,15.0227,272.7760,87.3010,0,U,59552,999,8566,.35894629E-4,.726E-5,0
STARLINK-31723,2024-074V,2025-10-27T14:55:45.053472,15.27594504,.00011007,43.0004,14.9970,284.8081,75.2649,0,U,59553,999,8566,.21664745E-3,.5707E-4,0
STARLINK-31724,2024-074W,2025-10-27T03:59:35.402208,15.27577167,.00001537,43.0014,341.5540,273.5287,86.5547,0,U,59554,999,8600,.26117584E-4,.457E-5,0
STARLINK-31730,2024-074X,2025-10-27T04:39:13.176864,15.27584075,.00006369,43.0027,17.8004,40.5085,319.5814,0,U,59555,999,8559,.21572364E-4,.332E-5,0
STARLINK-31718,2024-074Y,2025-10-27T21:38:17.122848,15.27586399,.0001523,43.0017,13.6516,274.3427,85.7251,0,U,59556,999,8570,.66596382E-3,.18112E-3,0
STARLINK-31747,2024-076A,2025-10-27T17:59:40.942752,15.27597528,.00011089,43.0039,29.1903,274.5319,85.5406,0,U,59564,999,8628,.5810157E-4,.1338E-4,0
STARLINK-31388,2024-076B,2025-10-27T17:11:33.834912,15.27596078,.00013937,43.0021,40.1994,265.2620,94.8073,0,U,59565,999,8616,.10737341E-2,.29417E-3,0
STARLINK-31332,2024-076C,2025-10-27T13:15:08.783136,15.27579065,.00010198,43.0039,40.6645,267.8837,92.1898,0,U,59566,999,8614,.594772E-6,-.246E-5,0
