STARLINK-31513          
1 59529U 24073U   25300.43855666 -.00000393  00000+0 -47568-5 0  9990
2 59529  43.0041 347.3055 0001625 283.0341  77.0329 15.27584631 85830
STARLINK-31392          
1 59530U 24073V   25300.42266048 -.00000010  00000+0  92012-5 0  9990
2 59530  43.0075 350.6840 0003923 280.2572  79.7838 15.27582466 85799
STARLINK-31619          
1 59531U 24073W   25300.53929498  .00000893  00000+0  41970-4 0  9992
2 59531  43.0031 349.8420 0001144 265.7604  94.3117 15.27579803 86934
STARLINK-31509          
1 59533U 24073Y   25300.44835435 -.00001173  00000+0 -33086-4 0  9994
2 59533  43.0016 350.8882 0000924 268.3505  91.7240 15.27595648 85793
STARLINK-31734          
1 59534U 24074A   25300.45418319  .00002888  00000+0  11440-3 0  9996
2 59534  43.0014   5.0735 0000757 271.3610  88.7155 15.27585724 85765
STARLINK-31738          
1 59535U 24074B   25300.47118750  .00002328  00000+0  94106-4 0  9995
2 59535  43.0020  12.0397 0001300 261.5509  98.5195 15.27579419 85686
STARLINK-31721          
1 59536U 24074C   25300.21174466 -.00003054  00000+0 -10153-3 0  9992
2 59536  43.0031  17.0760 0001365 255.9897 104.0803 15.27568017 85609
STARLINK-31737          
1 59537U 24074D   25300.61819163  .00002831  00000+0  11235-3 0  9999
2 59537  43.0022  14.9687 0002361 281.9871  78.0716 15.27591616 85662
STARLINK-31725          
1 59538U 24074E   25300.55807434  .00001469  00000+0  62912-4 0  9996
2 59538  43.0031   4.7131 0001149 269.3619  90.7101 15.27575234 85776
STARLINK-31539          
1 59539U 24074F   25300.49898186  .00001568  00000+0  66465-4 0  9991
2 59539  43.0028  15.7945 0001255 270.9284  89.1424 15.27589124 85641
STARLINK-31397          
1 59540U 24074G   25300.90544169 -.00001162  00000+0 -32699-4 0  9992
2 59540  43.0028  13.6836 0000812 296.3072  63.7696 15.27587409 85704
STARLINK-31481          
1 59541U 24074H   25300.91686409 -.00000240  00000+0  77351-6 0  9999
2 59541  43.0000  12.9092 0000502 275.6510  84.4285 15.27578013 85710
STARLINK-31540          
1 59542U 24074J   25300.47714725  .00001202  00000+0  53214-4 0  9992
2 59542  43.0058  15.6284 0001640 267.6336  92.4328 15.27578193 85646
STARLINK-31574          
1 59543U 24074K   25300.63362119 -.00000139  00000+0  44503-5 0  9998
2 59543  42.9983  15.0799 0000492 275.4796  84.5999 15.27574443 85660
STARLINK-31556          
1 59544U 24074L   25300.89774218 -.00002703  00000+0 -88822-4 0  9995
2 59544  43.0011  13.6297 0000573  37.1681 322.9210 15.27558777 85700
STARLINK-31582          
1 59545U 24074M   25300.64774793 -.00002279  00000+0 -73261-4 0  9996
2 59545  43.0052  15.1866 0001478 286.8137  73.2552 15.27595412 85666
STARLINK-31519          
1 59546U 24074N   25300.59635433  .00008572  00000+0  32055-3 0  9993
2 59546  43.0012  14.8004 0000589 256.0911 103.9875 15.27588827 85665
STARLINK-31736          
1 59547U 24074P   25300.62174038 -.00002132  00000+0 -67982-4 0  9993
2 59547  43.0006   8.0658 0000849 266.6136  93.4618 15.27573237 85740
STARLINK-31675          
1 59548U 24074Q   25300.48099333  .00001346  00000+0  58391-4 0  9990
2 59548  43.0033  15.6534 0001016 241.3649 118.7100 15.27590798 85641
STARLINK-31722          
1 59549U 24074R   25300.91943492  .00004087  00000+0  15793-3 0  9996
2 59549  42.9999  12.9235 0000438 316.6294  43.4523 15.27582795 85717
STARLINK-31741          
1 59550U 24074S   25300.66558320  .00003537  00000+0  13796-3 0  9992
2 59550  43.0085  14.4644 0002982 286.6519  73.4005 15.27595693 85674
STARLINK-31699          
1 59551U 24074T   25300.48357097  .00000140  00000+0  14622-4 0  9998
2 59551  43.0028  15.6752 0000915 246.3893 113.6863 15.27581725 85644
STARLINK-31750          
1 59552U 24074U   25300.62590659  .00000726  00000+0  35895-4 0  9993
2 59552  43.0011  15.0227 0000707 272.7760  87.3010 15.27584657 85663
STARLINK-31723          
1 59553U 24074V   25300.62204923  .00005707  00000+0  21665-3 0  9993
2 59553  43.0004  14.9970 0001100 284.8081  75.2649 15.27594504 85663
STARLINK-31724          
1 59554U 24074W   25300.16638197  .00000457  00000+0  26118-4 0  9993
2 59554  43.0014 341.5540 0000153 273.5287  86.5547 15.27577167 86004
STARLINK-31730          
1 59555U 24074X   25300.19390251  .00000332  00000+0  21572-4 0  9994
2 59555  43.0027  17.8004 0000636  40.5085 319.5814 15.27584075 85596
STARLINK-31718          
1 59556U 24074Y   25300.90158707  .00018112  00000+0  66596-3 0  9991
2 59556  43.0017  13.6516 0001523 274.3427  85.7251 15.27586399 85702
STARLINK-31747          
1 59564U 24076A   25300.74977943  .00001338  00000+0  58102-4 0  9992
2 59564  43.0039  29.1903 0001108 274.5319  85.5406 15.27597528 86288
STARLINK-31388          
1 59565U 24076B   25300.71636383  .00029417  00000+0  10737-2 0  9998
2 59565  43.0021  40.1994 0001393 265.2620  94.8073 15.27596078 86160
STARLINK-31332          
1 59566U 24076C   25300.55218499 -.00000246  00000+0  59477-6 0  9993
2 59566  43.0039  40.6645 0001019 267.8837  92.1898 15.27579065 86142
